{
"type": "FeatureCollection",
"name": "Warngebiete-Polygon-NW",
"crs": { "type": "name", "properties": { "name": "urn:ogc:def:crs:OGC:1.3:CRS84" } },
"features": [
{ "type": "Feature", "properties": { "ID": "NW_01_0" }, "geometry": { "type": "Polygon", "coordinates": [ [ [ 8.0196, 52.1693 ], [ 8.0069, 52.1761 ], [ 7.9394, 52.176 ], [ 7.9087, 52.1897 ], [ 7.9052, 52.2089 ], [ 7.9451, 52.2647 ], [ 7.9553, 52.272 ], [ 7.9288, 52.2929 ], [ 7.9337, 52.302 ], [ 7.9775, 52.3128 ], [ 7.9485, 52.3364 ], [ 7.9505, 52.3476 ], [ 7.9392, 52.3639 ], [ 7.8913, 52.3814 ], [ 7.8473, 52.3704 ], [ 7.8089, 52.3713 ], [ 7.7309, 52.398 ], [ 7.7143, 52.4003 ], [ 7.6969, 52.4431 ], [ 7.6823, 52.4578 ], [ 7.6067, 52.4741 ], [ 7.5907, 52.4635 ], [ 7.5719, 52.4308 ], [ 7.5893, 52.4248 ], [ 7.5848, 52.4035 ], [ 7.5628, 52.3692 ], [ 7.5318, 52.3701 ], [ 7.5033, 52.3602 ], [ 7.4439, 52.3294 ], [ 7.3713, 52.3005 ], [ 7.3625, 52.2882 ], [ 7.3204, 52.2804 ], [ 7.3139, 52.255 ], [ 7.322, 52.2485 ], [ 7.3726, 52.2579 ], [ 7.371, 52.2413 ], [ 7.3599, 52.2304 ], [ 7.4009, 52.2119 ], [ 7.3689, 52.1969 ], [ 7.3459, 52.1661 ], [ 7.3459, 52.155 ], [ 7.3699, 52.153 ], [ 7.3821, 52.1448 ], [ 7.4159, 52.0999 ], [ 7.433, 52.0902 ], [ 7.4275, 52.0766 ], [ 7.4406, 52.0635 ], [ 7.4779, 52.04 ], [ 7.4498, 52.03 ], [ 7.4238, 52.0049 ], [ 7.3939, 51.998 ], [ 7.3628, 51.9857 ], [ 7.3499, 51.9661 ], [ 7.3972, 51.9519 ], [ 7.4211, 51.949 ], [ 7.4465, 51.9597 ], [ 7.4856, 51.968 ], [ 7.5025, 51.9387 ], [ 7.5308, 51.9392 ], [ 7.5385, 51.9193 ], [ 7.5203, 51.9075 ], [ 7.542, 51.8648 ], [ 7.5649, 51.846 ], [ 7.5693, 51.8215 ], [ 7.5878, 51.8057 ], [ 7.5753, 51.7984 ], [ 7.5982, 51.7745 ], [ 7.6059, 51.7599 ], [ 7.5952, 51.7434 ], [ 7.6113, 51.7281 ], [ 7.6351, 51.727 ], [ 7.666, 51.734 ], [ 7.6828, 51.7272 ], [ 7.7147, 51.7259 ], [ 7.7328, 51.7336 ], [ 7.7799, 51.739 ], [ 7.8346, 51.7338 ], [ 7.8815, 51.7359 ], [ 7.9101, 51.721 ], [ 7.9344, 51.724 ], [ 7.9535, 51.7193 ], [ 8.0084, 51.7351 ], [ 8.0653, 51.736 ], [ 8.0922, 51.7696 ], [ 8.1135, 51.7741 ], [ 8.1497, 51.7711 ], [ 8.1744, 51.7639 ], [ 8.2099, 51.765 ], [ 8.2547, 51.773 ], [ 8.354, 51.779 ], [ 8.3874, 51.7715 ], [ 8.421, 51.7812 ], [ 8.4614, 51.77 ], [ 8.467, 51.7496 ], [ 8.5029, 51.755 ], [ 8.5445, 51.7689 ], [ 8.6279, 51.7861 ], [ 8.6279, 51.799 ], [ 8.6629, 51.814 ], [ 8.6789, 51.835 ], [ 8.7249, 51.851 ], [ 8.7281, 51.8572 ], [ 8.7641, 51.8727 ], [ 8.7879, 51.874 ], [ 8.8135, 51.8822 ], [ 8.8254, 51.8945 ], [ 8.8099, 51.912 ], [ 8.7899, 51.922 ], [ 8.7605, 51.9238 ], [ 8.6636, 51.9576 ], [ 8.6655, 51.9658 ], [ 8.6169, 51.968 ], [ 8.6051, 51.9745 ], [ 8.5088, 51.999 ], [ 8.4869, 52.014 ], [ 8.4353, 52.0277 ], [ 8.4253, 52.041 ], [ 8.3839, 52.0717 ], [ 8.3875, 52.0803 ], [ 8.3488, 52.0953 ], [ 8.2976, 52.0896 ], [ 8.283, 52.114 ], [ 8.2647, 52.1197 ], [ 8.2824, 52.1335 ], [ 8.2459, 52.1217 ], [ 8.2004, 52.0885 ], [ 8.1726, 52.0724 ], [ 8.1276, 52.0676 ], [ 8.0978, 52.0579 ], [ 8.0671, 52.0682 ], [ 8.0306, 52.068 ], [ 7.9746, 52.0375 ], [ 7.9171, 52.0513 ], [ 7.8839, 52.0846 ], [ 7.901, 52.0928 ], [ 8.0086, 52.1157 ], [ 8.0037, 52.1448 ], [ 8.0249, 52.1596 ], [ 8.0196, 52.1693 ] ] ] } },
{ "type": "Feature", "properties": { "ID": "NW_03_0" }, "geometry": { "type": "Polygon", "coordinates": [ [ [ 7.3204, 52.2804 ], [ 7.3175, 52.2802 ], [ 7.2983, 52.265 ], [ 7.2336, 52.2639 ], [ 7.1585, 52.2667 ], [ 7.1217, 52.2619 ], [ 7.0989, 52.243 ], [ 7.0634, 52.2415 ], [ 7.0373, 52.2275 ], [ 6.9866, 52.2268 ], [ 6.9735, 52.205 ], [ 6.9512, 52.1811 ], [ 6.9077, 52.1763 ], [ 6.8809, 52.156 ], [ 6.872, 52.1304 ], [ 6.8549, 52.1205 ], [ 6.7601, 52.118 ], [ 6.7487, 52.0837 ], [ 6.7346, 52.0752 ], [ 6.6948, 52.0709 ], [ 6.688, 52.0401 ], [ 6.7187, 52.039 ], [ 6.7529, 52.0284 ], [ 6.8265, 51.9929 ], [ 6.828, 51.9645 ], [ 6.799, 51.9589 ], [ 6.794, 51.9363 ], [ 6.7688, 51.9164 ], [ 6.7212, 51.8963 ], [ 6.6772, 51.9163 ], [ 6.6382, 51.9043 ], [ 6.5788, 51.8917 ], [ 6.5292, 51.8762 ], [ 6.4981, 51.8611 ], [ 6.4704, 51.854 ], [ 6.4505, 51.8654 ], [ 6.39, 51.8742 ], [ 6.3898, 51.8633 ], [ 6.4079, 51.8281 ], [ 6.4553, 51.8208 ], [ 6.4649, 51.8051 ], [ 6.4481, 51.7869 ], [ 6.4786, 51.7697 ], [ 6.4858, 51.7531 ], [ 6.521, 51.7381 ], [ 6.5214, 51.7151 ], [ 6.5551, 51.691 ], [ 6.569, 51.6876 ], [ 6.5891, 51.6982 ], [ 6.6103, 51.6821 ], [ 6.6259, 51.6807 ], [ 6.6577, 51.6585 ], [ 6.7375, 51.6578 ], [ 6.7739, 51.6713 ], [ 6.7753, 51.6845 ], [ 6.7606, 51.6913 ], [ 6.7763, 51.7109 ], [ 6.8597, 51.7488 ], [ 6.8599, 51.7657 ], [ 6.9769, 51.8112 ], [ 6.9943, 51.8228 ], [ 6.9992, 51.8469 ], [ 7.04, 51.8384 ], [ 7.0308, 51.8739 ], [ 7.0469, 51.9052 ], [ 7.0778, 51.9216 ], [ 7.1032, 51.9217 ], [ 7.1466, 51.9376 ], [ 7.1784, 51.9148 ], [ 7.2238, 51.9171 ], [ 7.2645, 51.9242 ], [ 7.3313, 51.9511 ], [ 7.3229, 51.9648 ], [ 7.3499, 51.9661 ], [ 7.3628, 51.9857 ], [ 7.3939, 51.998 ], [ 7.4238, 52.0049 ], [ 7.4498, 52.03 ], [ 7.4779, 52.04 ], [ 7.4406, 52.0635 ], [ 7.4275, 52.0766 ], [ 7.433, 52.0902 ], [ 7.4159, 52.0999 ], [ 7.3821, 52.1448 ], [ 7.3699, 52.153 ], [ 7.3459, 52.155 ], [ 7.3459, 52.1661 ], [ 7.3689, 52.1969 ], [ 7.4009, 52.2119 ], [ 7.3599, 52.2304 ], [ 7.371, 52.2413 ], [ 7.3726, 52.2579 ], [ 7.322, 52.2485 ], [ 7.3139, 52.255 ], [ 7.3204, 52.2804 ] ] ] } },
{ "type": "Feature", "properties": { "ID": "NW_04_0" }, "geometry": { "type": "Polygon", "coordinates": [ [ [ 6.1747, 51.1587 ], [ 6.1626, 51.1491 ], [ 6.0982, 51.1352 ], [ 6.0352, 51.0961 ], [ 6.0162, 51.0942 ], [ 5.9846, 51.0746 ], [ 5.968, 51.0461 ], [ 5.9368, 51.0371 ], [ 5.9129, 51.0663 ], [ 5.8659, 51.0511 ], [ 5.8792, 51.0179 ], [ 5.9044, 50.987 ], [ 5.9187, 50.9778 ], [ 6.0259, 50.9833 ], [ 6.0133, 50.9614 ], [ 6.0189, 50.9349 ], [ 6.058, 50.9258 ], [ 6.0949, 50.9215 ], [ 6.0749, 50.8928 ], [ 6.0889, 50.8762 ], [ 6.0737, 50.847 ], [ 6.0563, 50.8564 ], [ 6.021, 50.8453 ], [ 6.0277, 50.8189 ], [ 6.0045, 50.8018 ], [ 5.9842, 50.8113 ], [ 5.9758, 50.7972 ], [ 5.998, 50.7854 ], [ 6.0409, 50.7445 ], [ 6.0371, 50.719 ], [ 6.1027, 50.7234 ], [ 6.1163, 50.7215 ], [ 6.1819, 50.6486 ], [ 6.1669, 50.6439 ], [ 6.1892, 50.6274 ], [ 6.2359, 50.6244 ], [ 6.2647, 50.628 ], [ 6.2695, 50.6185 ], [ 6.2429, 50.5872 ], [ 6.2194, 50.5819 ], [ 6.1749, 50.558 ], [ 6.1896, 50.5242 ], [ 6.2221, 50.5019 ], [ 6.2769, 50.503 ], [ 6.3084, 50.5008 ], [ 6.3409, 50.484 ], [ 6.3401, 50.4618 ], [ 6.3718, 50.4562 ], [ 6.3761, 50.4345 ], [ 6.3694, 50.4105 ], [ 6.3772, 50.4131 ], [ 6.4357, 50.4129 ], [ 6.4764, 50.4194 ], [ 6.5082, 50.414 ], [ 6.5262, 50.4047 ], [ 6.5426, 50.4111 ], [ 6.5727, 50.4119 ], [ 6.6149, 50.432 ], [ 6.6353, 50.4454 ], [ 6.6624, 50.455 ], [ 6.6917, 50.4585 ], [ 6.7022, 50.4715 ], [ 6.6859, 50.4792 ], [ 6.6896, 50.5013 ], [ 6.6418, 50.5132 ], [ 6.6236, 50.5257 ], [ 6.599, 50.5208 ], [ 6.5891, 50.539 ], [ 6.5688, 50.5608 ], [ 6.5249, 50.5799 ], [ 6.4968, 50.5881 ], [ 6.4951, 50.5971 ], [ 6.5139, 50.6071 ], [ 6.5235, 50.6432 ], [ 6.5088, 50.657 ], [ 6.5035, 50.6874 ], [ 6.532, 50.706 ], [ 6.5289, 50.7283 ], [ 6.5624, 50.7392 ], [ 6.5824, 50.7574 ], [ 6.5833, 50.7856 ], [ 6.5496, 50.8083 ], [ 6.5174, 50.8476 ], [ 6.5216, 50.8702 ], [ 6.5045, 50.8849 ], [ 6.4934, 50.8764 ], [ 6.4719, 50.893 ], [ 6.4579, 50.9166 ], [ 6.4287, 50.922 ], [ 6.4049, 50.9319 ], [ 6.3759, 50.937 ], [ 6.3489, 50.9558 ], [ 6.3841, 50.9722 ], [ 6.4162, 50.9743 ], [ 6.4432, 50.9821 ], [ 6.4599, 50.9926 ], [ 6.4449, 51.004 ], [ 6.4529, 51.0232 ], [ 6.4108, 51.0413 ], [ 6.3552, 51.0414 ], [ 6.3329, 51.0464 ], [ 6.3149, 51.0691 ], [ 6.2987, 51.0707 ], [ 6.2797, 51.0878 ], [ 6.221, 51.097 ], [ 6.2285, 51.1374 ], [ 6.2103, 51.1529 ], [ 6.1747, 51.1587 ] ] ] } },
{ "type": "Feature", "properties": { "ID": "NW_04_1" }, "geometry": { "type": "Polygon", "coordinates": [ [ [ 6.4704, 51.0875 ], [ 6.4609, 51.1051 ], [ 6.4779, 51.1198 ], [ 6.4709, 51.1265 ], [ 6.5062, 51.138 ], [ 6.5599, 51.1735 ], [ 6.5459, 51.1956 ], [ 6.5549, 51.2054 ], [ 6.5389, 51.2251 ], [ 6.5611, 51.242 ], [ 6.5823, 51.2377 ], [ 6.6137, 51.2422 ], [ 6.6207, 51.2623 ], [ 6.5931, 51.2804 ], [ 6.5659, 51.2834 ], [ 6.5509, 51.2956 ], [ 6.5318, 51.298 ], [ 6.5248, 51.3257 ], [ 6.515, 51.3402 ], [ 6.5355, 51.366 ], [ 6.5374, 51.3773 ], [ 6.5196, 51.3942 ], [ 6.5049, 51.4259 ], [ 6.5038, 51.4392 ], [ 6.4889, 51.4731 ], [ 6.4939, 51.485 ], [ 6.4599, 51.518 ], [ 6.4692, 51.5249 ], [ 6.4932, 51.5205 ], [ 6.514, 51.544 ], [ 6.5077, 51.5583 ], [ 6.4889, 51.5641 ], [ 6.498, 51.577 ], [ 6.4518, 51.5871 ], [ 6.4188, 51.581 ], [ 6.4089, 51.6237 ], [ 6.3829, 51.628 ], [ 6.3632, 51.6373 ], [ 6.346, 51.6557 ], [ 6.3567, 51.668 ], [ 6.3437, 51.6761 ], [ 6.3005, 51.6812 ], [ 6.3047, 51.7201 ], [ 6.2558, 51.717 ], [ 6.2416, 51.7243 ], [ 6.212, 51.7205 ], [ 6.1918, 51.7331 ], [ 6.1459, 51.7489 ], [ 6.1351, 51.7666 ], [ 6.1138, 51.7781 ], [ 6.099, 51.7785 ], [ 6.0692, 51.7666 ], [ 6.0654, 51.7561 ], [ 6.0298, 51.7439 ], [ 5.9832, 51.7573 ], [ 5.9534, 51.7415 ], [ 5.9947, 51.738 ], [ 6.0468, 51.7159 ], [ 6.0266, 51.7078 ], [ 6.0304, 51.6767 ], [ 6.0421, 51.6715 ], [ 6.1179, 51.6557 ], [ 6.0919, 51.606 ], [ 6.1578, 51.566 ], [ 6.2038, 51.5241 ], [ 6.2131, 51.5116 ], [ 6.2238, 51.4699 ], [ 6.2061, 51.4006 ], [ 6.2263, 51.361 ], [ 6.1905, 51.3399 ], [ 6.1688, 51.3323 ], [ 6.1557, 51.3099 ], [ 6.1236, 51.2742 ], [ 6.0859, 51.248 ], [ 6.0717, 51.2421 ], [ 6.0676, 51.2202 ], [ 6.0734, 51.1831 ], [ 6.083, 51.1711 ], [ 6.1108, 51.1729 ], [ 6.1226, 51.1812 ], [ 6.1659, 51.1941 ], [ 6.1805, 51.1862 ], [ 6.1399, 51.1734 ], [ 6.1747, 51.1587 ], [ 6.2103, 51.1529 ], [ 6.2285, 51.1374 ], [ 6.221, 51.097 ], [ 6.2797, 51.0878 ], [ 6.2987, 51.0707 ], [ 6.3149, 51.0691 ], [ 6.3329, 51.0464 ], [ 6.3552, 51.0414 ], [ 6.4108, 51.0413 ], [ 6.4529, 51.0232 ], [ 6.4808, 51.0252 ], [ 6.4638, 51.0411 ], [ 6.4628, 51.0769 ], [ 6.4704, 51.0875 ] ] ] } },
{ "type": "Feature", "properties": { "ID": "NW_05_0" }, "geometry": { "type": "Polygon", "coordinates": [ [ [ 8.8254, 51.8945 ], [ 8.844, 51.8987 ], [ 8.8599, 51.8905 ], [ 8.8531, 51.8809 ], [ 8.8681, 51.862 ], [ 8.908, 51.8614 ], [ 8.9258, 51.8443 ], [ 8.9172, 51.8257 ], [ 8.9513, 51.8131 ], [ 8.9563, 51.7938 ], [ 8.9728, 51.7673 ], [ 8.995, 51.7484 ], [ 8.9859, 51.738 ], [ 8.9899, 51.7161 ], [ 9.0029, 51.6961 ], [ 8.9777, 51.6849 ], [ 8.9719, 51.6686 ], [ 8.9815, 51.6628 ], [ 8.9915, 51.624 ], [ 8.9897, 51.5961 ], [ 9.0149, 51.5933 ], [ 9.0201, 51.5757 ], [ 9.0571, 51.5693 ], [ 9.1254, 51.5675 ], [ 9.1538, 51.5742 ], [ 9.1617, 51.5901 ], [ 9.2013, 51.5977 ], [ 9.2527, 51.5917 ], [ 9.2781, 51.5935 ], [ 9.3238, 51.5909 ], [ 9.3267, 51.6166 ], [ 9.3466, 51.6275 ], [ 9.387, 51.6319 ], [ 9.4004, 51.6269 ], [ 9.4299, 51.633 ], [ 9.439, 51.6507 ], [ 9.394, 51.646 ], [ 9.3756, 51.6512 ], [ 9.3784, 51.6641 ], [ 9.3946, 51.6801 ], [ 9.401, 51.7034 ], [ 9.376, 51.7414 ], [ 9.3846, 51.7546 ], [ 9.3999, 51.759 ], [ 9.4477, 51.795 ], [ 9.4404, 51.8254 ], [ 9.444, 51.8462 ], [ 9.424, 51.8557 ], [ 9.3617, 51.8648 ], [ 9.3346, 51.8581 ], [ 9.3443, 51.8968 ], [ 9.3345, 51.9138 ], [ 9.3123, 51.9224 ], [ 9.286, 51.9213 ], [ 9.2629, 51.9463 ], [ 9.2775, 51.9618 ], [ 9.2641, 51.9758 ], [ 9.2175, 51.9738 ], [ 9.2059, 51.9593 ], [ 9.1806, 51.976 ], [ 9.1739, 51.9843 ], [ 9.1965, 52.0106 ], [ 9.1757, 52.0344 ], [ 9.1734, 52.06 ], [ 9.1871, 52.0748 ], [ 9.1754, 52.0857 ], [ 9.1459, 52.0996 ], [ 9.1585, 52.1199 ], [ 9.1437, 52.1349 ], [ 9.1143, 52.1374 ], [ 9.0995, 52.1327 ], [ 9.0172, 52.1482 ], [ 9.0169, 52.171 ], [ 9.0079, 52.1808 ], [ 9.0425, 52.1844 ], [ 9.0451, 52.2084 ], [ 9.075, 52.2338 ], [ 8.9725, 52.2639 ], [ 8.9638, 52.2786 ], [ 8.9864, 52.2872 ], [ 8.9984, 52.3268 ], [ 9.027, 52.3452 ], [ 9.0605, 52.3403 ], [ 9.0977, 52.3716 ], [ 9.1233, 52.4053 ], [ 9.1238, 52.4211 ], [ 9.0939, 52.4431 ], [ 9.1026, 52.4566 ], [ 9.1351, 52.4756 ], [ 9.1291, 52.4838 ], [ 9.0548, 52.5003 ], [ 9.0335, 52.4836 ], [ 8.9732, 52.4278 ], [ 8.9379, 52.4022 ], [ 8.8535, 52.3896 ], [ 8.7872, 52.3988 ], [ 8.747, 52.3874 ], [ 8.7077, 52.3956 ], [ 8.6982, 52.4858 ], [ 8.7027, 52.5006 ], [ 8.652, 52.53 ], [ 8.557, 52.5007 ], [ 8.5097, 52.5148 ], [ 8.46, 52.4949 ], [ 8.4536, 52.4609 ], [ 8.4294, 52.4476 ], [ 8.3608, 52.4433 ], [ 8.2979, 52.4551 ], [ 8.3209, 52.4261 ], [ 8.3143, 52.406 ], [ 8.3217, 52.4011 ], [ 8.3936, 52.385 ], [ 8.4449, 52.361 ], [ 8.4609, 52.3179 ], [ 8.4573, 52.3016 ], [ 8.4662, 52.2677 ], [ 8.4674, 52.2461 ], [ 8.4432, 52.2151 ], [ 8.4482, 52.2002 ], [ 8.5019, 52.187 ], [ 8.4935, 52.1673 ], [ 8.469, 52.1561 ], [ 8.452, 52.1551 ], [ 8.4115, 52.1368 ], [ 8.4099, 52.1153 ], [ 8.3883, 52.1082 ], [ 8.3634, 52.1184 ], [ 8.3243, 52.1254 ], [ 8.3137, 52.1195 ], [ 8.285, 52.1259 ], [ 8.2824, 52.1335 ], [ 8.2647, 52.1197 ], [ 8.283, 52.114 ], [ 8.2976, 52.0896 ], [ 8.3488, 52.0953 ], [ 8.3875, 52.0803 ], [ 8.3839, 52.0717 ], [ 8.4253, 52.041 ], [ 8.4353, 52.0277 ], [ 8.4869, 52.014 ], [ 8.5088, 51.999 ], [ 8.6051, 51.9745 ], [ 8.6169, 51.968 ], [ 8.6655, 51.9658 ], [ 8.6636, 51.9576 ], [ 8.7605, 51.9238 ], [ 8.7899, 51.922 ], [ 8.8099, 51.912 ], [ 8.8254, 51.8945 ] ] ] } },
{ "type": "Feature", "properties": { "ID": "NW_05_1" }, "geometry": { "type": "Polygon", "coordinates": [ [ [ 8.6667, 51.2643 ], [ 8.6094, 51.2466 ], [ 8.5994, 51.2465 ], [ 8.6033, 51.2241 ], [ 8.5889, 51.2232 ], [ 8.5469, 51.205 ], [ 8.5211, 51.2013 ], [ 8.519, 51.191 ], [ 8.4899, 51.1771 ], [ 8.4586, 51.152 ], [ 8.4036, 51.1325 ], [ 8.369, 51.104 ], [ 8.3392, 51.0923 ], [ 8.2781, 51.1036 ], [ 8.2522, 51.0998 ], [ 8.237, 51.104 ], [ 8.2159, 51.091 ], [ 8.2056, 51.0764 ], [ 8.1687, 51.064 ], [ 8.1619, 51.057 ], [ 8.1899, 51.0325 ], [ 8.1669, 51.0059 ], [ 8.1579, 51.0 ], [ 8.1604, 50.9815 ], [ 8.1529, 50.972 ], [ 8.1819, 50.958 ], [ 8.1848, 50.939 ], [ 8.2134, 50.9236 ], [ 8.2327, 50.925 ], [ 8.2518, 50.9324 ], [ 8.2695, 50.9565 ], [ 8.2714, 50.9698 ], [ 8.2884, 50.9829 ], [ 8.3181, 50.9861 ], [ 8.3348, 50.9812 ], [ 8.3553, 50.9855 ], [ 8.4059, 50.987 ], [ 8.439, 50.9682 ], [ 8.4754, 50.9695 ], [ 8.4739, 50.9758 ], [ 8.5007, 50.9986 ], [ 8.5385, 51.0196 ], [ 8.5228, 51.0365 ], [ 8.5264, 51.065 ], [ 8.5042, 51.0793 ], [ 8.5276, 51.096 ], [ 8.5538, 51.1023 ], [ 8.666, 51.0986 ], [ 8.7143, 51.1087 ], [ 8.7019, 51.1165 ], [ 8.6942, 51.1357 ], [ 8.7141, 51.1516 ], [ 8.7345, 51.1599 ], [ 8.7579, 51.1773 ], [ 8.7273, 51.2501 ], [ 8.7222, 51.2734 ], [ 8.6942, 51.2778 ], [ 8.6667, 51.2643 ] ] ] } },
{ "type": "Feature", "properties": { "ID": "NW_05_2" }, "geometry": { "type": "Polygon", "coordinates": [ [ [ 9.0201, 51.5757 ], [ 8.9958, 51.572 ], [ 8.9659, 51.558 ], [ 8.9365, 51.5618 ], [ 8.9238, 51.5554 ], [ 8.9198, 51.53 ], [ 8.9047, 51.5329 ], [ 8.8896, 51.5198 ], [ 8.8581, 51.504 ], [ 8.8615, 51.4956 ], [ 8.831, 51.4864 ], [ 8.8008, 51.4627 ], [ 8.7719, 51.4463 ], [ 8.7389, 51.436 ], [ 8.7132, 51.4325 ], [ 8.689, 51.4222 ], [ 8.6888, 51.4042 ], [ 8.6563, 51.4024 ], [ 8.6407, 51.3854 ], [ 8.6204, 51.3815 ], [ 8.5796, 51.3784 ], [ 8.5586, 51.3577 ], [ 8.5667, 51.3297 ], [ 8.5508, 51.3184 ], [ 8.5644, 51.2875 ], [ 8.6208, 51.3366 ], [ 8.7068, 51.3751 ], [ 8.731, 51.3721 ], [ 8.7719, 51.3856 ], [ 8.8042, 51.3908 ], [ 8.8542, 51.3778 ], [ 8.8905, 51.3928 ], [ 8.9388, 51.3898 ], [ 8.949, 51.4116 ], [ 8.9481, 51.4298 ], [ 8.9345, 51.4313 ], [ 8.8938, 51.4715 ], [ 8.8936, 51.4851 ], [ 8.9103, 51.4911 ], [ 9.0182, 51.5168 ], [ 9.0386, 51.5025 ], [ 9.0791, 51.5038 ], [ 9.0945, 51.4957 ], [ 9.0781, 51.4661 ], [ 9.0895, 51.4461 ], [ 9.1563, 51.4427 ], [ 9.175, 51.4633 ], [ 9.1858, 51.4663 ], [ 9.2153, 51.4593 ], [ 9.2172, 51.4812 ], [ 9.2414, 51.4977 ], [ 9.2841, 51.5141 ], [ 9.3108, 51.53 ], [ 9.3191, 51.5486 ], [ 9.3675, 51.5898 ], [ 9.3368, 51.6146 ], [ 9.377, 51.6271 ], [ 9.4004, 51.6269 ], [ 9.387, 51.6319 ], [ 9.3466, 51.6275 ], [ 9.3267, 51.6166 ], [ 9.3238, 51.5909 ], [ 9.2781, 51.5935 ], [ 9.2527, 51.5917 ], [ 9.2013, 51.5977 ], [ 9.1617, 51.5901 ], [ 9.1538, 51.5742 ], [ 9.1254, 51.5675 ], [ 9.0571, 51.5693 ], [ 9.0201, 51.5757 ] ] ] } },
{ "type": "Feature", "properties": { "ID": "NW_06_0" }, "geometry": { "type": "Polygon", "coordinates": [ [ [ 6.4704, 51.0875 ], [ 6.5016, 51.0969 ], [ 6.5559, 51.099 ], [ 6.5699, 51.107 ], [ 6.59, 51.1318 ], [ 6.6114, 51.1357 ], [ 6.6238, 51.1569 ], [ 6.6398, 51.1699 ], [ 6.6948, 51.171 ], [ 6.7119, 51.1828 ], [ 6.731, 51.1844 ], [ 6.7457, 51.172 ], [ 6.7748, 51.1592 ], [ 6.7621, 51.139 ], [ 6.7946, 51.1153 ], [ 6.7853, 51.0949 ], [ 6.8017, 51.0811 ], [ 6.7918, 51.0651 ], [ 6.8072, 51.0437 ], [ 6.797, 51.0268 ], [ 6.7573, 50.9879 ], [ 6.728, 50.9772 ], [ 6.7096, 50.9602 ], [ 6.7472, 50.93 ], [ 6.7402, 50.9122 ], [ 6.7676, 50.8853 ], [ 6.8275, 50.8636 ], [ 6.8424, 50.8532 ], [ 6.8515, 50.8352 ], [ 6.8336, 50.8065 ], [ 6.8869, 50.7745 ], [ 6.9064, 50.772 ], [ 6.9545, 50.744 ], [ 6.9616, 50.7305 ], [ 6.9866, 50.7325 ], [ 6.9916, 50.7162 ], [ 6.97, 50.6976 ], [ 6.986, 50.691 ], [ 6.9831, 50.6725 ], [ 7.0023, 50.6501 ], [ 7.0214, 50.6421 ], [ 7.0434, 50.6456 ], [ 7.0819, 50.6124 ], [ 7.0776, 50.5942 ], [ 7.0883, 50.5861 ], [ 7.1031, 50.5906 ], [ 7.1128, 50.606 ], [ 7.1455, 50.6005 ], [ 7.174, 50.6133 ], [ 7.1954, 50.6434 ], [ 7.2119, 50.649 ], [ 7.2119, 50.625 ], [ 7.2408, 50.6289 ], [ 7.2559, 50.6244 ], [ 7.2936, 50.6311 ], [ 7.2859, 50.6541 ], [ 7.2492, 50.6716 ], [ 7.2272, 50.6868 ], [ 7.2108, 50.7082 ], [ 7.1917, 50.7149 ], [ 7.2001, 50.7418 ], [ 7.1938, 50.7551 ], [ 7.1583, 50.753 ], [ 7.1391, 50.7654 ], [ 7.1035, 50.7591 ], [ 7.0737, 50.7702 ], [ 7.1039, 50.7762 ], [ 7.1081, 50.791 ], [ 7.1248, 50.7989 ], [ 7.1354, 50.825 ], [ 7.172, 50.8366 ], [ 7.1879, 50.8468 ], [ 7.1747, 50.8671 ], [ 7.1736, 50.9159 ], [ 7.1831, 50.9212 ], [ 7.1755, 50.9401 ], [ 7.1934, 50.947 ], [ 7.1829, 50.9642 ], [ 7.1901, 50.9866 ], [ 7.2045, 50.9916 ], [ 7.2016, 51.0237 ], [ 7.1621, 51.0129 ], [ 7.1437, 51.0167 ], [ 7.1263, 51.0108 ], [ 7.1105, 50.9918 ], [ 7.0559, 50.99 ], [ 7.0187, 51.0019 ], [ 7.0018, 51.0218 ], [ 6.9498, 51.0454 ], [ 6.9845, 51.0745 ], [ 6.9806, 51.0918 ], [ 7.0026, 51.0983 ], [ 6.9919, 51.1282 ], [ 7.0109, 51.1365 ], [ 7.0315, 51.1599 ], [ 7.072, 51.1735 ], [ 7.0892, 51.208 ], [ 7.0612, 51.2338 ], [ 7.0835, 51.2571 ], [ 7.0997, 51.2633 ], [ 7.1222, 51.2835 ], [ 7.1047, 51.2928 ], [ 7.0868, 51.2924 ], [ 7.0649, 51.3029 ], [ 7.0598, 51.3276 ], [ 7.0242, 51.3341 ], [ 7.0115, 51.3275 ], [ 6.9896, 51.3298 ], [ 6.9642, 51.325 ], [ 6.9343, 51.3275 ], [ 6.914, 51.3374 ], [ 6.9092, 51.3569 ], [ 6.8945, 51.3643 ], [ 6.8847, 51.3884 ], [ 6.8566, 51.3931 ], [ 6.8228, 51.4119 ], [ 6.8242, 51.4234 ], [ 6.7789, 51.4477 ], [ 6.7467, 51.4323 ], [ 6.7235, 51.4386 ], [ 6.7381, 51.4523 ], [ 6.7193, 51.4691 ], [ 6.6974, 51.4733 ], [ 6.6934, 51.4848 ], [ 6.7298, 51.501 ], [ 6.7234, 51.519 ], [ 6.7395, 51.5369 ], [ 6.7433, 51.5524 ], [ 6.7641, 51.5616 ], [ 6.801, 51.5658 ], [ 6.8393, 51.5563 ], [ 6.8644, 51.5418 ], [ 6.8754, 51.546 ], [ 6.8908, 51.5735 ], [ 6.888, 51.585 ], [ 6.9036, 51.6014 ], [ 6.8931, 51.6153 ], [ 6.835, 51.6099 ], [ 6.8159, 51.597 ], [ 6.8016, 51.603 ], [ 6.81, 51.6294 ], [ 6.7746, 51.6211 ], [ 6.717, 51.6374 ], [ 6.6584, 51.6295 ], [ 6.6289, 51.6493 ], [ 6.6577, 51.6585 ], [ 6.6259, 51.6807 ], [ 6.6103, 51.6821 ], [ 6.5891, 51.6982 ], [ 6.569, 51.6876 ], [ 6.5551, 51.691 ], [ 6.5214, 51.7151 ], [ 6.521, 51.7381 ], [ 6.4858, 51.7531 ], [ 6.4786, 51.7697 ], [ 6.4481, 51.7869 ], [ 6.4649, 51.8051 ], [ 6.4553, 51.8208 ], [ 6.4079, 51.8281 ], [ 6.3928, 51.8307 ], [ 6.3335, 51.8521 ], [ 6.2972, 51.8689 ], [ 6.2751, 51.875 ], [ 6.2188, 51.8688 ], [ 6.1869, 51.8838 ], [ 6.188, 51.8923 ], [ 6.1535, 51.9041 ], [ 6.1242, 51.8983 ], [ 6.1647, 51.8602 ], [ 6.1662, 51.8409 ], [ 6.0552, 51.8526 ], [ 5.9993, 51.832 ], [ 5.9627, 51.8368 ], [ 5.946, 51.8244 ], [ 5.9559, 51.81 ], [ 5.9777, 51.7965 ], [ 5.9893, 51.7658 ], [ 5.9528, 51.749 ], [ 5.9534, 51.7415 ], [ 5.9832, 51.7573 ], [ 6.0298, 51.7439 ], [ 6.0654, 51.7561 ], [ 6.0692, 51.7666 ], [ 6.099, 51.7785 ], [ 6.1138, 51.7781 ], [ 6.1351, 51.7666 ], [ 6.1459, 51.7489 ], [ 6.1918, 51.7331 ], [ 6.212, 51.7205 ], [ 6.2416, 51.7243 ], [ 6.2558, 51.717 ], [ 6.3047, 51.7201 ], [ 6.3005, 51.6812 ], [ 6.3437, 51.6761 ], [ 6.3567, 51.668 ], [ 6.346, 51.6557 ], [ 6.3632, 51.6373 ], [ 6.3829, 51.628 ], [ 6.4089, 51.6237 ], [ 6.4188, 51.581 ], [ 6.4518, 51.5871 ], [ 6.498, 51.577 ], [ 6.4889, 51.5641 ], [ 6.5077, 51.5583 ], [ 6.514, 51.544 ], [ 6.4932, 51.5205 ], [ 6.4692, 51.5249 ], [ 6.4599, 51.518 ], [ 6.4939, 51.485 ], [ 6.4889, 51.4731 ], [ 6.5038, 51.4392 ], [ 6.5049, 51.4259 ], [ 6.5196, 51.3942 ], [ 6.5374, 51.3773 ], [ 6.5355, 51.366 ], [ 6.515, 51.3402 ], [ 6.5248, 51.3257 ], [ 6.5318, 51.298 ], [ 6.5509, 51.2956 ], [ 6.5659, 51.2834 ], [ 6.5931, 51.2804 ], [ 6.6207, 51.2623 ], [ 6.6137, 51.2422 ], [ 6.5823, 51.2377 ], [ 6.5611, 51.242 ], [ 6.5389, 51.2251 ], [ 6.5549, 51.2054 ], [ 6.5459, 51.1956 ], [ 6.5599, 51.1735 ], [ 6.5062, 51.138 ], [ 6.4709, 51.1265 ], [ 6.4779, 51.1198 ], [ 6.4609, 51.1051 ], [ 6.4704, 51.0875 ] ] ] } },
{ "type": "Feature", "properties": { "ID": "NW_06_1" }, "geometry": { "type": "Polygon", "coordinates": [ [ [ 8.4754, 50.9695 ], [ 8.439, 50.9682 ], [ 8.4059, 50.987 ], [ 8.3553, 50.9855 ], [ 8.3348, 50.9812 ], [ 8.3181, 50.9861 ], [ 8.2884, 50.9829 ], [ 8.2714, 50.9698 ], [ 8.2695, 50.9565 ], [ 8.2518, 50.9324 ], [ 8.2327, 50.925 ], [ 8.2494, 50.9178 ], [ 8.2415, 50.9079 ], [ 8.2498, 50.8849 ], [ 8.2697, 50.8809 ], [ 8.2908, 50.8813 ], [ 8.3061, 50.8621 ], [ 8.3374, 50.8657 ], [ 8.3624, 50.8621 ], [ 8.3849, 50.8758 ], [ 8.4056, 50.9023 ], [ 8.4499, 50.9325 ], [ 8.4602, 50.9659 ], [ 8.4749, 50.969 ], [ 8.4754, 50.9695 ] ] ] } },
{ "type": "Feature", "properties": { "ID": "NW_06_2" }, "geometry": { "type": "Polygon", "coordinates": [ [ [ 6.3694, 50.4105 ], [ 6.3403, 50.3793 ], [ 6.3599, 50.369 ], [ 6.4064, 50.3356 ], [ 6.415, 50.323 ], [ 6.3855, 50.3842 ], [ 6.412, 50.3889 ], [ 6.449, 50.3718 ], [ 6.4608, 50.3609 ], [ 6.4524, 50.3353 ], [ 6.4846, 50.338 ], [ 6.5292, 50.3693 ], [ 6.6039, 50.3875 ], [ 6.6266, 50.3719 ], [ 6.6216, 50.3546 ], [ 6.6504, 50.3481 ], [ 6.6554, 50.3677 ], [ 6.6683, 50.372 ], [ 6.6958, 50.3463 ], [ 6.7316, 50.3515 ], [ 6.7828, 50.3631 ], [ 6.7853, 50.3755 ], [ 6.7699, 50.3925 ], [ 6.7842, 50.4208 ], [ 6.7688, 50.4317 ], [ 6.7439, 50.4676 ], [ 6.7451, 50.473 ], [ 6.7022, 50.4715 ], [ 6.6917, 50.4585 ], [ 6.6624, 50.455 ], [ 6.6353, 50.4454 ], [ 6.6149, 50.432 ], [ 6.5727, 50.4119 ], [ 6.5426, 50.4111 ], [ 6.5262, 50.4047 ], [ 6.5082, 50.414 ], [ 6.4764, 50.4194 ], [ 6.4357, 50.4129 ], [ 6.3772, 50.4131 ], [ 6.3694, 50.4105 ] ] ] } },
{ "type": "Feature", "properties": { "ID": "NW_06_3" }, "geometry": { "type": "Polygon", "coordinates": [ [ [ 7.2016, 51.0237 ], [ 7.2148, 51.0457 ], [ 7.2287, 51.0466 ], [ 7.2432, 51.0688 ], [ 7.2689, 51.0762 ], [ 7.3063, 51.0812 ], [ 7.3247, 51.0972 ], [ 7.3663, 51.1079 ], [ 7.405, 51.09 ], [ 7.4301, 51.1011 ], [ 7.4578, 51.0882 ], [ 7.4827, 51.0935 ], [ 7.5457, 51.0816 ], [ 7.5565, 51.0711 ], [ 7.5739, 51.0702 ], [ 7.5917, 51.0788 ], [ 7.5992, 51.1003 ], [ 7.6026, 51.1192 ], [ 7.5968, 51.1501 ], [ 7.5688, 51.1514 ], [ 7.5284, 51.1592 ], [ 7.5188, 51.1669 ], [ 7.4743, 51.1651 ], [ 7.4127, 51.203 ], [ 7.3759, 51.2169 ], [ 7.3536, 51.2446 ], [ 7.349, 51.2581 ], [ 7.3246, 51.265 ], [ 7.3234, 51.2866 ], [ 7.3136, 51.2977 ], [ 7.288, 51.3024 ], [ 7.2797, 51.3145 ], [ 7.2507, 51.3126 ], [ 7.1948, 51.294 ], [ 7.1625, 51.2985 ], [ 7.1576, 51.2874 ], [ 7.131, 51.2791 ], [ 7.1222, 51.2835 ], [ 7.0997, 51.2633 ], [ 7.0835, 51.2571 ], [ 7.0612, 51.2338 ], [ 7.0892, 51.208 ], [ 7.072, 51.1735 ], [ 7.0315, 51.1599 ], [ 7.0109, 51.1365 ], [ 6.9919, 51.1282 ], [ 7.0026, 51.0983 ], [ 6.9806, 51.0918 ], [ 6.9845, 51.0745 ], [ 6.9498, 51.0454 ], [ 7.0018, 51.0218 ], [ 7.0187, 51.0019 ], [ 7.0559, 50.99 ], [ 7.1105, 50.9918 ], [ 7.1263, 51.0108 ], [ 7.1437, 51.0167 ], [ 7.1621, 51.0129 ], [ 7.2016, 51.0237 ] ] ] } },
{ "type": "Feature", "properties": { "ID": "NW_06_4" }, "geometry": { "type": "Polygon", "coordinates": [ [ [ 7.6127, 51.4807 ], [ 7.63, 51.4972 ], [ 7.6215, 51.5093 ], [ 7.5792, 51.5079 ], [ 7.561, 51.5138 ], [ 7.5243, 51.5053 ], [ 7.5202, 51.4989 ], [ 7.4759, 51.5048 ], [ 7.4762, 51.5426 ], [ 7.4923, 51.5526 ], [ 7.465, 51.5587 ], [ 7.4554, 51.5796 ], [ 7.427, 51.6006 ], [ 7.382, 51.6209 ], [ 7.3339, 51.6152 ], [ 7.2962, 51.6247 ], [ 7.2802, 51.6189 ], [ 7.2358, 51.6149 ], [ 7.2384, 51.6239 ], [ 7.205, 51.6326 ], [ 7.0826, 51.5976 ], [ 7.0562, 51.5737 ], [ 7.0107, 51.5813 ], [ 6.9632, 51.6041 ], [ 6.9325, 51.5968 ], [ 6.9036, 51.6014 ], [ 6.888, 51.585 ], [ 6.8908, 51.5735 ], [ 6.8754, 51.546 ], [ 6.8644, 51.5418 ], [ 6.8393, 51.5563 ], [ 6.801, 51.5658 ], [ 6.7641, 51.5616 ], [ 6.7433, 51.5524 ], [ 6.7395, 51.5369 ], [ 6.7234, 51.519 ], [ 6.7298, 51.501 ], [ 6.6934, 51.4848 ], [ 6.6974, 51.4733 ], [ 6.7193, 51.4691 ], [ 6.7381, 51.4523 ], [ 6.7568, 51.458 ], [ 6.7979, 51.462 ], [ 6.8015, 51.468 ], [ 6.835, 51.477 ], [ 6.852, 51.4658 ], [ 6.8998, 51.4695 ], [ 6.9218, 51.4378 ], [ 6.9425, 51.4251 ], [ 6.9834, 51.4097 ], [ 7.0024, 51.4224 ], [ 7.0058, 51.438 ], [ 7.0268, 51.436 ], [ 7.0363, 51.4503 ], [ 7.0891, 51.464 ], [ 7.1101, 51.4565 ], [ 7.1378, 51.457 ], [ 7.1432, 51.4439 ], [ 7.175, 51.4426 ], [ 7.2009, 51.436 ], [ 7.2389, 51.4525 ], [ 7.2381, 51.4656 ], [ 7.2537, 51.4731 ], [ 7.2499, 51.489 ], [ 7.263, 51.5089 ], [ 7.2923, 51.528 ], [ 7.3217, 51.526 ], [ 7.3269, 51.503 ], [ 7.3142, 51.4821 ], [ 7.3517, 51.4783 ], [ 7.3629, 51.446 ], [ 7.3749, 51.437 ], [ 7.4296, 51.433 ], [ 7.4677, 51.4341 ], [ 7.5281, 51.46 ], [ 7.558, 51.4691 ], [ 7.6127, 51.4807 ] ] ] } },
{ "type": "Feature", "properties": { "ID": "NW_07_1" }, "geometry": { "type": "Polygon", "coordinates": [ [ [ 8.2697, 50.8809 ], [ 8.2498, 50.8849 ], [ 8.2415, 50.9079 ], [ 8.2494, 50.9178 ], [ 8.2327, 50.925 ], [ 8.2134, 50.9236 ], [ 8.1848, 50.939 ], [ 8.1819, 50.958 ], [ 8.1529, 50.972 ], [ 8.1604, 50.9815 ], [ 8.1579, 51.0 ], [ 8.1669, 51.0059 ], [ 8.1263, 51.0247 ], [ 8.0789, 51.0216 ], [ 8.0706, 51.0077 ], [ 8.0536, 51.0094 ], [ 8.0017, 51.0328 ], [ 7.9701, 51.0332 ], [ 7.9504, 51.0272 ], [ 7.9341, 51.0037 ], [ 7.9411, 50.9685 ], [ 7.9245, 50.9612 ], [ 7.9251, 50.9496 ], [ 7.9112, 50.9254 ], [ 7.8697, 50.9278 ], [ 7.8499, 50.9248 ], [ 7.8336, 50.907 ], [ 7.8296, 50.883 ], [ 7.8833, 50.8758 ], [ 7.9066, 50.8483 ], [ 7.9661, 50.8467 ], [ 7.9774, 50.8313 ], [ 7.9736, 50.8048 ], [ 7.9669, 50.7969 ], [ 7.9685, 50.7738 ], [ 8.04, 50.7269 ], [ 8.0401, 50.6972 ], [ 8.0602, 50.6956 ], [ 8.0768, 50.7057 ], [ 8.0969, 50.7039 ], [ 8.1264, 50.6865 ], [ 8.1421, 50.6948 ], [ 8.1673, 50.7345 ], [ 8.1645, 50.7438 ], [ 8.1284, 50.7884 ], [ 8.1609, 50.802 ], [ 8.1874, 50.8286 ], [ 8.2697, 50.8809 ] ] ] } },
{ "type": "Feature", "properties": { "ID": "NW_07_2" }, "geometry": { "type": "Polygon", "coordinates": [ [ [ 7.7865, 50.9403 ], [ 7.7784, 50.9462 ], [ 7.787, 50.9672 ], [ 7.7687, 50.9805 ], [ 7.75, 50.976 ], [ 7.7244, 50.991 ], [ 7.7208, 51.0091 ], [ 7.7362, 51.0224 ], [ 7.7165, 51.0347 ], [ 7.716, 51.0481 ], [ 7.701, 51.0609 ], [ 7.706, 51.0706 ], [ 7.6873, 51.0931 ], [ 7.6205, 51.1042 ], [ 7.5992, 51.1003 ], [ 7.5917, 51.0788 ], [ 7.5739, 51.0702 ], [ 7.5565, 51.0711 ], [ 7.5457, 51.0816 ], [ 7.4827, 51.0935 ], [ 7.4578, 51.0882 ], [ 7.4301, 51.1011 ], [ 7.405, 51.09 ], [ 7.3663, 51.1079 ], [ 7.3247, 51.0972 ], [ 7.3063, 51.0812 ], [ 7.2689, 51.0762 ], [ 7.2432, 51.0688 ], [ 7.2287, 51.0466 ], [ 7.2148, 51.0457 ], [ 7.2016, 51.0237 ], [ 7.2045, 50.9916 ], [ 7.1901, 50.9866 ], [ 7.1829, 50.9642 ], [ 7.1934, 50.947 ], [ 7.1755, 50.9401 ], [ 7.1831, 50.9212 ], [ 7.1736, 50.9159 ], [ 7.1747, 50.8671 ], [ 7.1879, 50.8468 ], [ 7.172, 50.8366 ], [ 7.1354, 50.825 ], [ 7.1248, 50.7989 ], [ 7.1081, 50.791 ], [ 7.1039, 50.7762 ], [ 7.0737, 50.7702 ], [ 7.1035, 50.7591 ], [ 7.1391, 50.7654 ], [ 7.1583, 50.753 ], [ 7.1938, 50.7551 ], [ 7.2001, 50.7418 ], [ 7.1917, 50.7149 ], [ 7.2108, 50.7082 ], [ 7.2272, 50.6868 ], [ 7.2492, 50.6716 ], [ 7.2859, 50.6541 ], [ 7.2936, 50.6311 ], [ 7.3594, 50.65 ], [ 7.3693, 50.6727 ], [ 7.3678, 50.6962 ], [ 7.373, 50.718 ], [ 7.4102, 50.7189 ], [ 7.4253, 50.7102 ], [ 7.4562, 50.718 ], [ 7.4806, 50.719 ], [ 7.5394, 50.7421 ], [ 7.55, 50.7463 ], [ 7.5852, 50.7376 ], [ 7.5929, 50.7566 ], [ 7.6172, 50.7693 ], [ 7.6608, 50.7684 ], [ 7.6806, 50.78 ], [ 7.6777, 50.8197 ], [ 7.6995, 50.8257 ], [ 7.7463, 50.8466 ], [ 7.7542, 50.8654 ], [ 7.7469, 50.9053 ], [ 7.7504, 50.9191 ], [ 7.7759, 50.9296 ], [ 7.7865, 50.9403 ] ] ] } },
{ "type": "Feature", "properties": { "ID": "NW_08_0" }, "geometry": { "type": "Polygon", "coordinates": [ [ [ 6.4529, 51.0232 ], [ 6.4449, 51.004 ], [ 6.4599, 50.9926 ], [ 6.4432, 50.9821 ], [ 6.4162, 50.9743 ], [ 6.3841, 50.9722 ], [ 6.3489, 50.9558 ], [ 6.3759, 50.937 ], [ 6.4049, 50.9319 ], [ 6.4287, 50.922 ], [ 6.4579, 50.9166 ], [ 6.4719, 50.893 ], [ 6.4934, 50.8764 ], [ 6.5045, 50.8849 ], [ 6.5216, 50.8702 ], [ 6.5174, 50.8476 ], [ 6.5496, 50.8083 ], [ 6.5833, 50.7856 ], [ 6.5824, 50.7574 ], [ 6.5624, 50.7392 ], [ 6.5289, 50.7283 ], [ 6.532, 50.706 ], [ 6.5035, 50.6874 ], [ 6.5088, 50.657 ], [ 6.5235, 50.6432 ], [ 6.5139, 50.6071 ], [ 6.4951, 50.5971 ], [ 6.4968, 50.5881 ], [ 6.5249, 50.5799 ], [ 6.5688, 50.5608 ], [ 6.5891, 50.539 ], [ 6.599, 50.5208 ], [ 6.6236, 50.5257 ], [ 6.6418, 50.5132 ], [ 6.6896, 50.5013 ], [ 6.6859, 50.4792 ], [ 6.7022, 50.4715 ], [ 6.7451, 50.473 ], [ 6.7714, 50.4858 ], [ 6.8007, 50.4913 ], [ 6.8126, 50.4715 ], [ 6.8553, 50.453 ], [ 6.9009, 50.4683 ], [ 6.9051, 50.5019 ], [ 6.8887, 50.5072 ], [ 6.883, 50.526 ], [ 6.9001, 50.5307 ], [ 6.9281, 50.5593 ], [ 6.9748, 50.5559 ], [ 6.9999, 50.5654 ], [ 7.0394, 50.5977 ], [ 7.0566, 50.6061 ], [ 7.0684, 50.5936 ], [ 7.0883, 50.5861 ], [ 7.0776, 50.5942 ], [ 7.0819, 50.6124 ], [ 7.0434, 50.6456 ], [ 7.0214, 50.6421 ], [ 7.0023, 50.6501 ], [ 6.9831, 50.6725 ], [ 6.986, 50.691 ], [ 6.97, 50.6976 ], [ 6.9916, 50.7162 ], [ 6.9866, 50.7325 ], [ 6.9616, 50.7305 ], [ 6.9545, 50.744 ], [ 6.9064, 50.772 ], [ 6.8869, 50.7745 ], [ 6.8336, 50.8065 ], [ 6.8515, 50.8352 ], [ 6.8424, 50.8532 ], [ 6.8275, 50.8636 ], [ 6.7676, 50.8853 ], [ 6.7402, 50.9122 ], [ 6.7472, 50.93 ], [ 6.7096, 50.9602 ], [ 6.728, 50.9772 ], [ 6.7573, 50.9879 ], [ 6.797, 51.0268 ], [ 6.8072, 51.0437 ], [ 6.7918, 51.0651 ], [ 6.8017, 51.0811 ], [ 6.7853, 51.0949 ], [ 6.7946, 51.1153 ], [ 6.7621, 51.139 ], [ 6.7748, 51.1592 ], [ 6.7457, 51.172 ], [ 6.731, 51.1844 ], [ 6.7119, 51.1828 ], [ 6.6948, 51.171 ], [ 6.6398, 51.1699 ], [ 6.6238, 51.1569 ], [ 6.6114, 51.1357 ], [ 6.59, 51.1318 ], [ 6.5699, 51.107 ], [ 6.5559, 51.099 ], [ 6.5016, 51.0969 ], [ 6.4704, 51.0875 ], [ 6.4628, 51.0769 ], [ 6.4638, 51.0411 ], [ 6.4808, 51.0252 ], [ 6.4529, 51.0232 ] ] ] } },
{ "type": "Feature", "properties": { "ID": "NW_09_0" }, "geometry": { "type": "Polygon", "coordinates": [ [ [ 8.1669, 51.0059 ], [ 8.1899, 51.0325 ], [ 8.1619, 51.057 ], [ 8.1687, 51.064 ], [ 8.2056, 51.0764 ], [ 8.2159, 51.091 ], [ 8.237, 51.104 ], [ 8.2522, 51.0998 ], [ 8.2781, 51.1036 ], [ 8.3392, 51.0923 ], [ 8.369, 51.104 ], [ 8.4036, 51.1325 ], [ 8.4586, 51.152 ], [ 8.4899, 51.1771 ], [ 8.519, 51.191 ], [ 8.5211, 51.2013 ], [ 8.5469, 51.205 ], [ 8.5889, 51.2232 ], [ 8.6033, 51.2241 ], [ 8.5994, 51.2465 ], [ 8.5892, 51.2496 ], [ 8.5564, 51.2775 ], [ 8.5644, 51.2875 ], [ 8.5508, 51.3184 ], [ 8.5667, 51.3297 ], [ 8.5586, 51.3577 ], [ 8.5796, 51.3784 ], [ 8.6204, 51.3815 ], [ 8.5949, 51.409 ], [ 8.6029, 51.4206 ], [ 8.5969, 51.4383 ], [ 8.5834, 51.438 ], [ 8.5375, 51.4591 ], [ 8.5468, 51.4812 ], [ 8.5056, 51.4908 ], [ 8.4948, 51.5033 ], [ 8.4794, 51.503 ], [ 8.4629, 51.5185 ], [ 8.3934, 51.5175 ], [ 8.3672, 51.512 ], [ 8.3073, 51.5083 ], [ 8.266, 51.5033 ], [ 8.2562, 51.5131 ], [ 8.2166, 51.51 ], [ 8.2026, 51.5042 ], [ 8.1658, 51.5076 ], [ 8.1581, 51.5029 ], [ 8.1168, 51.5055 ], [ 8.0868, 51.5027 ], [ 8.057, 51.5055 ], [ 8.022, 51.5002 ], [ 7.9653, 51.5135 ], [ 7.8944, 51.5128 ], [ 7.8713, 51.516 ], [ 7.8431, 51.5087 ], [ 7.8183, 51.5136 ], [ 7.7786, 51.5093 ], [ 7.7625, 51.4959 ], [ 7.7355, 51.4962 ], [ 7.7115, 51.5022 ], [ 7.6127, 51.4807 ], [ 7.558, 51.4691 ], [ 7.5281, 51.46 ], [ 7.4677, 51.4341 ], [ 7.4296, 51.433 ], [ 7.3749, 51.437 ], [ 7.3629, 51.446 ], [ 7.3517, 51.4783 ], [ 7.3142, 51.4821 ], [ 7.3269, 51.503 ], [ 7.3217, 51.526 ], [ 7.2923, 51.528 ], [ 7.263, 51.5089 ], [ 7.2499, 51.489 ], [ 7.2537, 51.4731 ], [ 7.2381, 51.4656 ], [ 7.2389, 51.4525 ], [ 7.2009, 51.436 ], [ 7.175, 51.4426 ], [ 7.1432, 51.4439 ], [ 7.1378, 51.457 ], [ 7.1101, 51.4565 ], [ 7.0891, 51.464 ], [ 7.0363, 51.4503 ], [ 7.0268, 51.436 ], [ 7.0058, 51.438 ], [ 7.0024, 51.4224 ], [ 6.9834, 51.4097 ], [ 6.9425, 51.4251 ], [ 6.9218, 51.4378 ], [ 6.8998, 51.4695 ], [ 6.852, 51.4658 ], [ 6.835, 51.477 ], [ 6.8015, 51.468 ], [ 6.7979, 51.462 ], [ 6.7568, 51.458 ], [ 6.7381, 51.4523 ], [ 6.7235, 51.4386 ], [ 6.7467, 51.4323 ], [ 6.7789, 51.4477 ], [ 6.8242, 51.4234 ], [ 6.8228, 51.4119 ], [ 6.8566, 51.3931 ], [ 6.8847, 51.3884 ], [ 6.8945, 51.3643 ], [ 6.9092, 51.3569 ], [ 6.914, 51.3374 ], [ 6.9343, 51.3275 ], [ 6.9642, 51.325 ], [ 6.9896, 51.3298 ], [ 7.0115, 51.3275 ], [ 7.0242, 51.3341 ], [ 7.0598, 51.3276 ], [ 7.0649, 51.3029 ], [ 7.0868, 51.2924 ], [ 7.1047, 51.2928 ], [ 7.1222, 51.2835 ], [ 7.131, 51.2791 ], [ 7.1576, 51.2874 ], [ 7.1625, 51.2985 ], [ 7.1948, 51.294 ], [ 7.2507, 51.3126 ], [ 7.2797, 51.3145 ], [ 7.288, 51.3024 ], [ 7.3136, 51.2977 ], [ 7.3234, 51.2866 ], [ 7.3246, 51.265 ], [ 7.349, 51.2581 ], [ 7.3536, 51.2446 ], [ 7.3759, 51.2169 ], [ 7.4127, 51.203 ], [ 7.4743, 51.1651 ], [ 7.5188, 51.1669 ], [ 7.5284, 51.1592 ], [ 7.5688, 51.1514 ], [ 7.5968, 51.1501 ], [ 7.6026, 51.1192 ], [ 7.5992, 51.1003 ], [ 7.6205, 51.1042 ], [ 7.6873, 51.0931 ], [ 7.706, 51.0706 ], [ 7.701, 51.0609 ], [ 7.716, 51.0481 ], [ 7.7165, 51.0347 ], [ 7.7362, 51.0224 ], [ 7.7208, 51.0091 ], [ 7.7244, 50.991 ], [ 7.75, 50.976 ], [ 7.7687, 50.9805 ], [ 7.787, 50.9672 ], [ 7.7784, 50.9462 ], [ 7.7865, 50.9403 ], [ 7.8499, 50.9248 ], [ 7.8697, 50.9278 ], [ 7.9112, 50.9254 ], [ 7.9251, 50.9496 ], [ 7.9245, 50.9612 ], [ 7.9411, 50.9685 ], [ 7.9341, 51.0037 ], [ 7.9504, 51.0272 ], [ 7.9701, 51.0332 ], [ 8.0017, 51.0328 ], [ 8.0536, 51.0094 ], [ 8.0706, 51.0077 ], [ 8.0789, 51.0216 ], [ 8.1263, 51.0247 ], [ 8.1669, 51.0059 ] ] ] } },
{ "type": "Feature", "properties": { "ID": "NW_10_0" }, "geometry": { "type": "Polygon", "coordinates": [ [ [ 7.3499, 51.9661 ], [ 7.3229, 51.9648 ], [ 7.3313, 51.9511 ], [ 7.2645, 51.9242 ], [ 7.2238, 51.9171 ], [ 7.1784, 51.9148 ], [ 7.1466, 51.9376 ], [ 7.1032, 51.9217 ], [ 7.0778, 51.9216 ], [ 7.0469, 51.9052 ], [ 7.0308, 51.8739 ], [ 7.04, 51.8384 ], [ 6.9992, 51.8469 ], [ 6.9943, 51.8228 ], [ 6.9769, 51.8112 ], [ 6.8599, 51.7657 ], [ 6.8597, 51.7488 ], [ 6.7763, 51.7109 ], [ 6.7606, 51.6913 ], [ 6.7753, 51.6845 ], [ 6.7739, 51.6713 ], [ 6.7375, 51.6578 ], [ 6.6577, 51.6585 ], [ 6.6289, 51.6493 ], [ 6.6584, 51.6295 ], [ 6.717, 51.6374 ], [ 6.7746, 51.6211 ], [ 6.81, 51.6294 ], [ 6.8016, 51.603 ], [ 6.8159, 51.597 ], [ 6.835, 51.6099 ], [ 6.8931, 51.6153 ], [ 6.9036, 51.6014 ], [ 6.9325, 51.5968 ], [ 6.9632, 51.6041 ], [ 7.0107, 51.5813 ], [ 7.0562, 51.5737 ], [ 7.0826, 51.5976 ], [ 7.205, 51.6326 ], [ 7.2384, 51.6239 ], [ 7.2358, 51.6149 ], [ 7.2802, 51.6189 ], [ 7.2962, 51.6247 ], [ 7.3339, 51.6152 ], [ 7.382, 51.6209 ], [ 7.427, 51.6006 ], [ 7.4554, 51.5796 ], [ 7.465, 51.5587 ], [ 7.4923, 51.5526 ], [ 7.4762, 51.5426 ], [ 7.4759, 51.5048 ], [ 7.5202, 51.4989 ], [ 7.5243, 51.5053 ], [ 7.561, 51.5138 ], [ 7.5792, 51.5079 ], [ 7.6215, 51.5093 ], [ 7.63, 51.4972 ], [ 7.6127, 51.4807 ], [ 7.7115, 51.5022 ], [ 7.7355, 51.4962 ], [ 7.7625, 51.4959 ], [ 7.7786, 51.5093 ], [ 7.8183, 51.5136 ], [ 7.8431, 51.5087 ], [ 7.8713, 51.516 ], [ 7.8944, 51.5128 ], [ 7.9653, 51.5135 ], [ 8.022, 51.5002 ], [ 8.057, 51.5055 ], [ 8.0868, 51.5027 ], [ 8.1168, 51.5055 ], [ 8.1581, 51.5029 ], [ 8.1658, 51.5076 ], [ 8.2026, 51.5042 ], [ 8.2166, 51.51 ], [ 8.2562, 51.5131 ], [ 8.266, 51.5033 ], [ 8.3073, 51.5083 ], [ 8.3672, 51.512 ], [ 8.3934, 51.5175 ], [ 8.4629, 51.5185 ], [ 8.4794, 51.503 ], [ 8.4948, 51.5033 ], [ 8.5056, 51.4908 ], [ 8.5468, 51.4812 ], [ 8.5375, 51.4591 ], [ 8.5834, 51.438 ], [ 8.5969, 51.4383 ], [ 8.6029, 51.4206 ], [ 8.5949, 51.409 ], [ 8.6204, 51.3815 ], [ 8.6407, 51.3854 ], [ 8.6563, 51.4024 ], [ 8.6888, 51.4042 ], [ 8.689, 51.4222 ], [ 8.7132, 51.4325 ], [ 8.7389, 51.436 ], [ 8.7719, 51.4463 ], [ 8.8008, 51.4627 ], [ 8.831, 51.4864 ], [ 8.8615, 51.4956 ], [ 8.8581, 51.504 ], [ 8.8896, 51.5198 ], [ 8.9047, 51.5329 ], [ 8.9198, 51.53 ], [ 8.9238, 51.5554 ], [ 8.9365, 51.5618 ], [ 8.9659, 51.558 ], [ 8.9958, 51.572 ], [ 9.0201, 51.5757 ], [ 9.0149, 51.5933 ], [ 8.9897, 51.5961 ], [ 8.9915, 51.624 ], [ 8.9815, 51.6628 ], [ 8.9719, 51.6686 ], [ 8.9777, 51.6849 ], [ 9.0029, 51.6961 ], [ 8.9899, 51.7161 ], [ 8.9859, 51.738 ], [ 8.995, 51.7484 ], [ 8.9728, 51.7673 ], [ 8.9563, 51.7938 ], [ 8.9513, 51.8131 ], [ 8.9172, 51.8257 ], [ 8.9258, 51.8443 ], [ 8.908, 51.8614 ], [ 8.8681, 51.862 ], [ 8.8531, 51.8809 ], [ 8.8599, 51.8905 ], [ 8.844, 51.8987 ], [ 8.8254, 51.8945 ], [ 8.8135, 51.8822 ], [ 8.7879, 51.874 ], [ 8.7641, 51.8727 ], [ 8.7281, 51.8572 ], [ 8.7249, 51.851 ], [ 8.6789, 51.835 ], [ 8.6629, 51.814 ], [ 8.6279, 51.799 ], [ 8.6279, 51.7861 ], [ 8.5445, 51.7689 ], [ 8.5029, 51.755 ], [ 8.467, 51.7496 ], [ 8.4614, 51.77 ], [ 8.421, 51.7812 ], [ 8.3874, 51.7715 ], [ 8.354, 51.779 ], [ 8.2547, 51.773 ], [ 8.2099, 51.765 ], [ 8.1744, 51.7639 ], [ 8.1497, 51.7711 ], [ 8.1135, 51.7741 ], [ 8.0922, 51.7696 ], [ 8.0653, 51.736 ], [ 8.0084, 51.7351 ], [ 7.9535, 51.7193 ], [ 7.9344, 51.724 ], [ 7.9101, 51.721 ], [ 7.8815, 51.7359 ], [ 7.8346, 51.7338 ], [ 7.7799, 51.739 ], [ 7.7328, 51.7336 ], [ 7.7147, 51.7259 ], [ 7.6828, 51.7272 ], [ 7.666, 51.734 ], [ 7.6351, 51.727 ], [ 7.6113, 51.7281 ], [ 7.5952, 51.7434 ], [ 7.6059, 51.7599 ], [ 7.5982, 51.7745 ], [ 7.5753, 51.7984 ], [ 7.5878, 51.8057 ], [ 7.5693, 51.8215 ], [ 7.5649, 51.846 ], [ 7.542, 51.8648 ], [ 7.5203, 51.9075 ], [ 7.5385, 51.9193 ], [ 7.5308, 51.9392 ], [ 7.5025, 51.9387 ], [ 7.4856, 51.968 ], [ 7.4465, 51.9597 ], [ 7.4211, 51.949 ], [ 7.3972, 51.9519 ], [ 7.3499, 51.9661 ] ] ] } }
]
}
