{
"type": "FeatureCollection",
"name": "Warngebiete-Polyline-NW",
"crs": { "type": "name", "properties": { "name": "urn:ogc:def:crs:OGC:1.3:CRS84" } },
"features": [
{ "type": "Feature", "properties": { "ID": "NW_107" }, "geometry": { "type": "LineString", "coordinates": [ [ 7.2119, 50.6349 ], [ 7.2119, 50.649 ], [ 7.1761, 50.6875 ], [ 7.1679, 50.7035 ], [ 7.156, 50.7125 ], [ 7.1263, 50.7213 ], [ 7.1127, 50.7315 ], [ 7.1054, 50.7496 ], [ 7.0974, 50.7571 ], [ 7.0373, 50.7846 ], [ 7.03, 50.7988 ], [ 7.0301, 50.8119 ], [ 7.0166, 50.8226 ], [ 6.9871, 50.8273 ], [ 6.9814, 50.8384 ], [ 6.9885, 50.8465 ], [ 7.0065, 50.8542 ], [ 7.0287, 50.8693 ], [ 7.045, 50.8751 ], [ 7.0503, 50.8834 ], [ 7.035, 50.8935 ], [ 7.0053, 50.8943 ], [ 6.9903, 50.8999 ], [ 6.9724, 50.9179 ], [ 6.9658, 50.9433 ], [ 6.9715, 50.9509 ], [ 6.9945, 50.9634 ], [ 6.9977, 50.9749 ], [ 6.9695, 50.9884 ], [ 6.9621, 50.9992 ], [ 6.9712, 51.0124 ], [ 6.9723, 51.023 ], [ 6.9657, 51.0299 ], [ 6.9429, 51.0424 ], [ 6.8907, 51.0668 ], [ 6.8562, 51.0765 ], [ 6.86, 51.0899 ], [ 6.8766, 51.0964 ], [ 6.8825, 51.1069 ], [ 6.8752, 51.1154 ], [ 6.8599, 51.1228 ], [ 6.8481, 51.137 ], [ 6.8566, 51.1566 ], [ 6.8482, 51.1613 ], [ 6.8331, 51.1579 ], [ 6.8158, 51.144 ], [ 6.8015, 51.1437 ], [ 6.7931, 51.1544 ], [ 6.7974, 51.1746 ], [ 6.7852, 51.1837 ], [ 6.7512, 51.1804 ], [ 6.7307, 51.1899 ], [ 6.7326, 51.2026 ], [ 6.7234, 51.2201 ], [ 6.7277, 51.2275 ], [ 6.7591, 51.2206 ], [ 6.7666, 51.2245 ], [ 6.7664, 51.2387 ], [ 6.7545, 51.2494 ], [ 6.7113, 51.2627 ], [ 6.7031, 51.275 ], [ 6.7236, 51.2942 ], [ 6.7339, 51.309 ], [ 6.7315, 51.3221 ], [ 6.7054, 51.3365 ], [ 6.6584, 51.3499 ], [ 6.6574, 51.3615 ], [ 6.6742, 51.3696 ], [ 6.7077, 51.3739 ], [ 6.7331, 51.386 ], [ 6.7435, 51.3958 ], [ 6.7444, 51.4078 ], [ 6.7177, 51.4301 ], [ 6.7141, 51.4451 ], [ 6.7237, 51.4572 ], [ 6.7177, 51.4666 ], [ 6.6911, 51.4723 ], [ 6.6823, 51.4853 ], [ 6.7125, 51.4959 ], [ 6.7227, 51.5023 ], [ 6.7216, 51.5124 ], [ 6.7102, 51.52 ], [ 6.6834, 51.5313 ], [ 6.6768, 51.5384 ], [ 6.6857, 51.56 ], [ 6.6841, 51.572 ], [ 6.6637, 51.5778 ], [ 6.6474, 51.5769 ], [ 6.6275, 51.5692 ], [ 6.6108, 51.5675 ], [ 6.5969, 51.5788 ], [ 6.5969, 51.5965 ], [ 6.5868, 51.6228 ], [ 6.6032, 51.6377 ], [ 6.603, 51.6486 ], [ 6.5847, 51.6591 ], [ 6.5452, 51.6588 ], [ 6.4996, 51.6626 ], [ 6.482, 51.6664 ], [ 6.4753, 51.6732 ], [ 6.4648, 51.6981 ], [ 6.4458, 51.7078 ], [ 6.4127, 51.7148 ], [ 6.4076, 51.7213 ], [ 6.4201, 51.7367 ], [ 6.415, 51.7522 ], [ 6.4022, 51.7557 ], [ 6.3603, 51.7545 ], [ 6.3341, 51.7624 ], [ 6.3193, 51.7909 ], [ 6.3002, 51.807 ], [ 6.2612, 51.8241 ], [ 6.2485, 51.8274 ], [ 6.1927, 51.8318 ], [ 6.1424, 51.8467 ], [ 6.0955, 51.8502 ] ] } },
{ "type": "Feature", "properties": { "ID": "NW_192" }, "geometry": { "type": "LineString", "coordinates": [ [ 9.0698, 52.4977 ], [ 9.0825, 52.4956 ] ] } },
{ "type": "Feature", "properties": { "ID": "NW_193" }, "geometry": { "type": "LineString", "coordinates": [ [ 9.0298, 52.4807 ], [ 9.0578, 52.4684 ], [ 9.0739, 52.4694 ], [ 9.0831, 52.4761 ], [ 9.0707, 52.4899 ], [ 9.0698, 52.4977 ] ] } },
{ "type": "Feature", "properties": { "ID": "NW_194" }, "geometry": { "type": "LineString", "coordinates": [ [ 9.0222, 52.4726 ], [ 9.0298, 52.4807 ] ] } },
{ "type": "Feature", "properties": { "ID": "NW_196" }, "geometry": { "type": "LineString", "coordinates": [ [ 8.9304, 52.3046 ], [ 8.92, 52.3132 ], [ 8.9287, 52.3284 ], [ 8.9585, 52.3518 ], [ 8.9807, 52.3617 ], [ 8.9719, 52.3893 ], [ 8.9859, 52.3998 ], [ 8.9773, 52.4114 ], [ 8.9835, 52.4182 ], [ 9.0259, 52.4214 ], [ 9.0251, 52.4305 ], [ 9.0101, 52.4361 ], [ 9.0121, 52.4508 ], [ 9.0221, 52.4629 ], [ 9.0222, 52.4726 ] ] } },
{ "type": "Feature", "properties": { "ID": "NW_198" }, "geometry": { "type": "LineString", "coordinates": [ [ 8.9905, 52.1828 ], [ 8.9692, 52.1851 ], [ 8.9587, 52.1814 ], [ 8.9263, 52.1835 ], [ 8.9033, 52.1659 ], [ 8.8797, 52.1651 ], [ 8.8671, 52.1701 ], [ 8.8598, 52.1858 ], [ 8.8629, 52.1933 ], [ 8.8516, 52.2106 ], [ 8.8291, 52.2226 ], [ 8.84, 52.2331 ], [ 8.8561, 52.2346 ], [ 8.8643, 52.2417 ], [ 8.8937, 52.2372 ], [ 8.913, 52.2412 ], [ 8.9206, 52.2485 ], [ 8.9261, 52.2726 ], [ 8.9228, 52.2823 ], [ 8.9304, 52.3046 ] ] } },
{ "type": "Feature", "properties": { "ID": "NW_200" }, "geometry": { "type": "LineString", "coordinates": [ [ 9.0487, 52.1958 ], [ 9.0406, 52.1894 ], [ 9.0129, 52.1952 ], [ 8.9905, 52.1828 ] ] } },
{ "type": "Feature", "properties": { "ID": "NW_202" }, "geometry": { "type": "LineString", "coordinates": [ [ 9.4441, 51.6457 ], [ 9.4325, 51.6485 ], [ 9.402, 51.6361 ], [ 9.3795, 51.6399 ], [ 9.3747, 51.6488 ], [ 9.3784, 51.6641 ], [ 9.3948, 51.6722 ], [ 9.3949, 51.6815 ], [ 9.3867, 51.6896 ], [ 9.4005, 51.6983 ], [ 9.3997, 51.7066 ], [ 9.3871, 51.7187 ], [ 9.394, 51.7302 ], [ 9.3761, 51.7408 ], [ 9.3846, 51.7528 ], [ 9.3812, 51.7662 ], [ 9.3929, 51.7747 ], [ 9.409, 51.7726 ], [ 9.4224, 51.8033 ], [ 9.4101, 51.8154 ], [ 9.4346, 51.8196 ], [ 9.4412, 51.8277 ], [ 9.434, 51.8409 ], [ 9.4439, 51.8463 ] ] } }
]
}
